[{"OBJECT_NAME":"GENMAT-1","OBJECT_ID":"2023-174W","EPOCH":"2026-03-09T18:03:23.351040","MEAN_MOTION":15.32594666,"ECCENTRICITY":0.00074416,"INCLINATION":97.3728,"RA_OF_ASC_NODE":146.8236,"ARG_OF_PERICENTER":169.2515,"MEAN_ANOMALY":190.8888,"EPHEMERIS_TYPE":0,"CLASSIFICATION_TYPE":"U","NORAD_CAT_ID":58276,"ELEMENT_SET_NO":999,"REV_AT_EPOCH":12973,"BSTAR":0.00042157222,"MEAN_MOTION_DOT":0.0001321,"MEAN_MOTION_DDOT":0},{"OBJECT_NAME":"STARLINK-35548","OBJECT_ID":"2025-243AC","EPOCH":"2026-03-09T18:06:26.286624","MEAN_MOTION":15.30193505,"ECCENTRICITY":0.00011366,"INCLINATION":53.1599,"RA_OF_ASC_NODE":244.9529,"ARG_OF_PERICENTER":65.1193,"MEAN_ANOMALY":294.9926,"EPHEMERIS_TYPE":0,"CLASSIFICATION_TYPE":"U","NORAD_CAT_ID":66203,"ELEMENT_SET_NO":999,"REV_AT_EPOCH":2066,"BSTAR":0.00080914293,"MEAN_MOTION_DOT":0.00023677,"MEAN_MOTION_DDOT":0}]
